NORAD_CAT_ID,OBJECT_NAME,OBJECT_TYPE,EPOCH,MEAN_MOTION,ECCENTRICITY,INCLINATION,RA_OF_ASC_NODE,ARG_OF_PERICENTER,MEAN_ANOMALY,BSTAR,MEAN_MOTION_DOT,MEAN_MOTION_DDOT,TLE_LINE0,TLE_LINE1,TLE_LINE2,SEMIMAJOR_AXIS,PERIOD,APOGEE,PERIGEE,DECAYED
53019.0,STARLINK-4282,PAYLOAD,2024-02-28 16:59:11,15.08813684,0.00015,53.217,166.0317,92.2037,267.9127,-0.00010553,-1.966e-05,0.0,0 STARLINK-4282,1 53019U 22076AK  24059.70777523 -.00001966  00000-0 -10553-3 0  9994,2 53019  53.2170 166.0317 0001500  92.2037 267.9127 15.08813684 91278,6917.961,95.439,540.864,538.788,0.0
53019.0,STARLINK-4282,PAYLOAD,2024-02-29 13:39:10,15.0884462,0.0001606,53.2169,162.165,88.9829,271.1347,0.00019264,2.78e-05,0.0,0 STARLINK-4282,1 53019U 22076AK  24060.56887186  .00002780  00000-0  19264-3 0  9998,2 53019  53.2169 162.1650 0001606  88.9829 271.1347 15.08844620 91872,6917.866,95.437,540.842,538.62,0.0
53019.0,STARLINK-4282,PAYLOAD,2024-02-29 16:49:56,15.08849374,0.0001524,53.2164,161.5677,83.7021,276.4145,0.00019971,2.893e-05,0.0,0 STARLINK-4282,1 53019U 22076AK  24060.70134796  .00002893  00000-0  19971-3 0  9996,2 53019  53.2164 161.5677 0001524  83.7021 276.4145 15.08849374 91421,6917.852,95.437,540.771,538.662,0.0
53019.0,STARLINK-4282,PAYLOAD,2024-03-01 13:29:57,15.08845734,0.0001551,53.2168,157.7047,80.9649,279.1519,0.00032544,4.896e-05,0.0,0 STARLINK-4282,1 53019U 22076AK  24061.56246678  .00004896  00000-0  32544-3 0  9990,2 53019  53.2168 157.7047 0001551  80.9649 279.1519 15.08845734 91553,6917.863,95.437,540.801,538.655,0.0
53019.0,STARLINK-4282,PAYLOAD,2024-03-02 11:45:21,15.08849005,0.0001707,53.2177,153.5425,84.5637,275.5549,-6.1669e-05,-1.27e-05,0.0,0 STARLINK-4282,1 53019U 22076AK  24062.48983588 -.00001270  00000-0 -61669-4 0  9996,2 53019  53.2177 153.5425 0001707  84.5637 275.5549 15.08849005 92163,6917.853,95.437,540.899,538.537,0.0
53019.0,STARLINK-4282,PAYLOAD,2024-03-02 13:20:44,15.08850501,0.0001693,53.2174,153.2446,78.5827,281.5355,-5.4695e-05,-1.159e-05,0.0,0 STARLINK-4282,1 53019U 22076AK  24062.55607452 -.00001159  00000-0 -54695-4 0  9994,2 53019  53.2174 153.2446 0001693  78.5827 281.5355 15.08850501 91702,6917.848,95.437,540.884,538.542,0.0
53019.0,STARLINK-4282,PAYLOAD,2024-03-03 05:14:36,15.08841375,0.0001775,53.2169,150.2691,69.1648,290.9534,-4.4359e-05,-9.94e-06,0.0,0 STARLINK-4282,1 53019U 22076AK  24063.21847724 -.00000994  00000-0 -44359-4 0  9998,2 53019  53.2169 150.2691 0001775  69.1648 290.9534 15.08841375 92278,6917.876,95.437,540.969,538.513,0.0
53019.0,STARLINK-4282,PAYLOAD,2024-03-03 13:11:31,15.08847957,0.0001643,53.2173,148.7847,82.5562,277.5616,-8.0035e-05,-1.562e-05,0.0,0 STARLINK-4282,1 53019U 22076AK  24063.54967237 -.00001562  00000-0 -80035-4 0  9999,2 53019  53.2173 148.7847 0001643  82.5562 277.5616 15.08847957 91853,6917.856,95.437,540.858,538.584,0.0
53019.0,STARLINK-4282,PAYLOAD,2024-03-04 13:02:18,15.08848877,0.0001642,53.2169,144.326,79.0705,281.0472,8.9294e-05,1.134e-05,0.0,0 STARLINK-4282,1 53019U 22076AK  24064.54326408  .00001134  00000-0  89294-4 0  9998,2 53019  53.2169 144.3260 0001642  79.0705 281.0472 15.08848877 92479,6917.853,95.437,540.854,538.582,0.0
53019.0,STARLINK-4282,PAYLOAD,2024-03-04 22:34:37,15.08838719,0.0001804,53.2184,142.5408,74.1582,285.9609,2.4769e-05,1.06e-06,0.0,0 STARLINK-4282,1 53019U 22076AK  24064.94071264  .00000106  00000-0  24769-4 0  9993,2 53019  53.2184 142.5408 0001804  74.1582 285.9609 15.08838719 92063,6917.884,95.438,540.997,538.501,0.0
53019.0,STARLINK-4282,PAYLOAD,2024-03-05 11:17:44,15.08823879,0.0001628,53.217,140.1615,88.5543,271.5636,-9.4587e-05,-1.792e-05,0.0,0 STARLINK-4282,1 53019U 22076AK  24065.47064822 -.00001792  00000-0 -94587-4 0  9993,2 53019  53.2170 140.1615 0001628  88.5543 271.5636 15.08823879 92143,6917.93,95.439,540.921,538.668,0.0
53019.0,STARLINK-4282,PAYLOAD,2024-03-06 11:08:29,15.08854121,0.000152,53.2174,135.6978,102.1827,257.9335,5.6726e-06,-1.98e-06,0.0,0 STARLINK-4282,1 53019U 22076AK  24066.46422769 -.00000198  00000-0  56726-5 0  9993,2 53019  53.2174 135.6978 0001520 102.1827 257.9335 15.08854121 92763,6917.837,95.437,540.754,538.651,0.0
53019.0,STARLINK-4282,PAYLOAD,2024-03-07 04:37:44,15.08827963,0.0001708,53.2183,132.4288,84.3559,275.7628,0.00016202,2.291e-05,0.0,0 STARLINK-4282,1 53019U 22076AK  24067.19287801  .00002291  00000-0  16202-3 0  9998,2 53019  53.2183 132.4288 0001708  84.3559 275.7628 15.08827963 92872,6917.917,95.438,540.964,538.601,0.0
53019.0,STARLINK-4282,PAYLOAD,2024-03-07 10:59:17,15.08830622,0.0001285,53.2169,131.2367,95.7538,264.3601,0.00015466,2.174e-05,0.0,0 STARLINK-4282,1 53019U 22076AK  24067.45784122  .00002174  00000-0  15466-3 0  9996,2 53019  53.2169 131.2367 0001285  95.7538 264.3601 15.08830622 92448,6917.909,95.438,540.663,538.885,0.0
53019.0,STARLINK-4282,PAYLOAD,2024-03-08 04:28:31,15.08849449,0.0001263,53.2157,127.968,82.4692,277.6444,-3.2225e-05,-8.01e-06,0.0,0 STARLINK-4282,1 53019U 22076AK  24068.18647738 -.00000801  00000-0 -32225-4 0  9998,2 53019  53.2157 127.9680 0001263  82.4692 277.6444 15.08849449 93029,6917.852,95.437,540.59,538.843,0.0
53019.0,STARLINK-4282,PAYLOAD,2024-03-08 10:50:03,15.08855228,0.0001304,53.2168,126.7793,97.1533,262.9607,5.3161e-05,5.59e-06,0.0,0 STARLINK-4282,1 53019U 22076AK  24068.45142829  .00000559  00000-0  53161-4 0  9999,2 53019  53.2168 126.7793 0001304  97.1533 262.9607 15.08855228 93060,6917.834,95.437,540.601,538.797,0.0
53019.0,STARLINK-4282,PAYLOAD,2024-03-08 20:22:22,15.08846949,0.0001312,53.2158,124.9944,76.4162,283.6976,2.7347e-06,-2.44e-06,0.0,0 STARLINK-4282,1 53019U 22076AK  24068.84887343 -.00000244  00000-0  27347-5 0  9999,2 53019  53.2158 124.9944 0001312  76.4162 283.6976 15.08846949 92657,6917.859,95.437,540.632,538.817,0.0
53019.0,STARLINK-4282,PAYLOAD,2024-03-09 04:19:19,15.08830333,0.0001233,53.2159,123.5067,89.88,270.2333,-6.5861e-06,-3.93e-06,0.0,0 STARLINK-4282,1 53019U 22076AK  24069.18008534 -.00000393  00000-0 -65861-5 0  9993,2 53019  53.2159 123.5067 0001233  89.8800 270.2333 15.08830333 93175,6917.91,95.438,540.628,538.922,0.0
53019.0,STARLINK-4282,PAYLOAD,2024-03-09 10:40:51,15.08837203,0.000137,53.2169,122.3197,96.6544,263.4604,5.4907e-05,5.86e-06,0.0,0 STARLINK-4282,1 53019U 22076AK  24069.44504064  .00000586  00000-0  54907-4 0  9991,2 53019  53.2169 122.3197 0001370  96.6544 263.4604 15.08837203 93213,6917.889,95.438,540.702,538.806,0.0
53019.0,STARLINK-4282,PAYLOAD,2024-03-09 13:51:37,15.08840022,0.0001322,53.2165,121.7235,92.5187,267.5956,7.0402e-05,8.33e-06,0.0,0 STARLINK-4282,1 53019U 22076AK  24069.57751800  .00000833  00000-0  70402-4 0  9990,2 53019  53.2165 121.7235 0001322  92.5187 267.5956 15.08840022 92767,6917.88,95.438,540.66,538.831,0.0
53019.0,STARLINK-4282,PAYLOAD,2024-03-09 20:13:10,15.08839198,0.0001206,53.2159,120.5323,82.4305,277.6824,2.5738e-05,1.22e-06,0.0,0 STARLINK-4282,1 53019U 22076AK  24069.84247987  .00000122  00000-0  25738-4 0  9999,2 53019  53.2159 120.5323 0001206  82.4305 277.6824 15.08839198 92809,6917.883,95.438,540.582,538.914,0.0
53019.0,STARLINK-4282,PAYLOAD,2024-03-10 13:42:25,15.08841408,0.000153,53.217,117.2634,89.7639,270.3528,-4.5474e-05,-1.012e-05,0.0,0 STARLINK-4282,1 53019U 22076AK  24070.57112292 -.00001012  00000-0 -45474-4 0  9991,2 53019  53.2170 117.2634 0001530  89.7639 270.3528 15.08841408 92910,6917.876,95.437,540.8,538.683,0.0
53019.0,STARLINK-4282,PAYLOAD,2024-03-11 10:22:25,15.08845475,0.0001518,53.2173,113.3977,92.8441,267.2725,0.00012192,1.653e-05,0.0,0 STARLINK-4282,1 53019U 22076AK  24071.43223618  .00001653  00000-0  12192-3 0  9991,2 53019  53.2173 113.3977 0001518  92.8441 267.2725 15.08845475 93049,6917.864,95.437,540.779,538.679,0.0
53019.0,STARLINK-4282,PAYLOAD,2024-03-11 19:54:44,15.08845212,0.0001563,53.2174,111.611,80.0254,280.0914,-9.3093e-07,-3.03e-06,0.0,0 STARLINK-4282,1 53019U 22076AK  24071.82967942 -.00000303  00000-0 -93093-6 0  9994,2 53019  53.2174 111.6110 0001563  80.0254 280.0914 15.08845212 93571,6917.864,95.437,540.811,538.648,0.0
53019.0,STARLINK-4282,PAYLOAD,2024-03-12 08:37:49,15.08832109,0.0001452,53.2154,109.2297,86.4152,273.7006,8.3202e-05,1.036e-05,0.0,0 STARLINK-4282,1 53019U 22076AK  24072.35960526  .00001036  00000-0  83202-4 0  9995,2 53019  53.2154 109.2297 0001452  86.4152 273.7006 15.08832109 93653,6917.905,95.438,540.774,538.765,0.0
53019.0,STARLINK-4282,PAYLOAD,2024-03-12 19:45:31,15.08840968,0.0001577,53.2165,107.151,85.411,274.7063,5.8858e-05,6.49e-06,0.0,0 STARLINK-4282,1 53019U 22076AK  24072.82328315  .00000649  00000-0  58858-4 0  9999,2 53019  53.2165 107.1510 0001577  85.4110 274.7063 15.08840968 93253,6917.877,95.437,540.833,538.651,0.0
53019.0,STARLINK-4282,PAYLOAD,2024-03-13 02:07:04,15.08843549,0.0001571,53.2164,105.9603,102.5362,257.5805,3.1194e-05,2.09e-06,0.0,0 STARLINK-4282,1 53019U 22076AK  24073.08824088  .00000209  00000-0  31194-4 0  9992,2 53019  53.2164 105.9603 0001571 102.5362 257.5805 15.08843549 93762,6917.87,95.437,540.821,538.648,0.0
53019.0,STARLINK-4282,PAYLOAD,2024-03-13 08:28:36,15.08852319,0.0001564,53.2152,104.7718,84.436,275.681,3.26e-05,2.31e-06,0.0,0 STARLINK-4282,1 53019U 22076AK  24073.35319502  .00000231  00000-0  32600-4 0  9990,2 53019  53.2152 104.7718 0001564  84.4360 275.6810 15.08852319 93808,6917.843,95.437,540.79,538.626,0.0
53019.0,STARLINK-4282,PAYLOAD,2024-03-14 05:08:37,15.08838155,0.000153,53.2154,100.9068,81.5669,278.5496,9.177e-05,1.173e-05,0.0,0 STARLINK-4282,1 53019U 22076AK  24074.21432138  .00001173  00000-0  91770-4 0  9996,2 53019  53.2154 100.9068 0001530  81.5669 278.5496 15.08838155 93937,6917.886,95.438,540.809,538.693,0.0
53019.0,STARLINK-4282,PAYLOAD,2024-03-14 06:44:00,15.08838544,0.0001514,53.2159,100.6095,81.6862,278.4302,9.4809e-05,1.221e-05,0.0,0 STARLINK-4282,1 53019U 22076AK  24074.28056117  .00001221  00000-0  94809-4 0  9992,2 53019  53.2159 100.6095 0001514  81.6862 278.4302 15.08838544 93473,6917.885,95.438,540.797,538.702,0.0
